[{"OBJECT_NAME":"STARLINK-32729","OBJECT_ID":"2025-003L","EPOCH":"2026-03-09T22:45:00.245664","MEAN_MOTION":15.27592049,"ECCENTRICITY":0.00027886,"INCLINATION":42.9976,"RA_OF_ASC_NODE":287.2827,"ARG_OF_PERICENTER":244.6086,"MEAN_ANOMALY":115.4477,"EPHEMERIS_TYPE":0,"CLASSIFICATION_TYPE":"U","NORAD_CAT_ID":62497,"ELEMENT_SET_NO":999,"REV_AT_EPOCH":6671,"BSTAR":0.0011867832,"MEAN_MOTION_DOT":0.00032554,"MEAN_MOTION_DDOT":0},{"OBJECT_NAME":"GEOSCAN 2 (RS92S2)","OBJECT_ID":"2025-155Q","EPOCH":"2026-03-09T23:01:48.939744","MEAN_MOTION":15.28709337,"ECCENTRICITY":0.00085277,"INCLINATION":97.4463,"RA_OF_ASC_NODE":37.5259,"ARG_OF_PERICENTER":140.9505,"MEAN_ANOMALY":219.2352,"EPHEMERIS_TYPE":0,"CLASSIFICATION_TYPE":"U","NORAD_CAT_ID":64890,"ELEMENT_SET_NO":999,"REV_AT_EPOCH":6561,"BSTAR":0.00051551761,"MEAN_MOTION_DOT":0.00014341,"MEAN_MOTION_DDOT":0}]
